BEESAT-4                
1 41619U 16040W   23007.38889386  .00032464  00000+0  84610-3 0  9997
2 41619  97.1887  58.1386 0009074 100.8094 259.4174 15.38748674351998
CAS-2T & KS-1Q          
1 41847U 16066G   23007.66188172  .00001185  00000+0  18773-3 0  9997
2 41847  98.5269  76.8916 0361477 318.8703  38.5743 14.39002999323712
NAYIF-1 (EO-88)         
1 42017U 17008BX  23006.44357243  .00040942  00000+0  89824-3 0  9995
2 42017  97.2440  75.4041 0002862 225.8663 134.2350 15.43946008328284
ZHUHAI-1 02 (CAS-4B)    
1 42759U 17034B   23007.87894300  .00008155  00000+0  45454-3 0  9996
2 42759  43.0174 284.5111 0008949 146.8865 329.7176 15.13861819307310
ZHUHAI-1 01 (CAS-4A)    
1 42761U 17034D   23007.83480153  .00007054  00000+0  39394-3 0  9995
2 42761  43.0185 283.3925 0009462 151.8699 314.2683 15.13949636307313
MAX VALIER SAT          
1 42778U 17036P   23007.34556451  .00017811  00000+0  59068-3 0  9998
2 42778  97.1803  46.6428 0008793 329.2080  30.8645 15.31276291308058
RADFXSAT (FOX-1B)       
1 43017U 17073E   23007.92623909  .00006739  00000+0  49616-3 0  9998
2 43017  97.6521 258.6818 0241065 237.1159 120.6652 14.83278400277400
FOX-1D (AO-92)          
1 43137U 18004AC  23007.66265753  .00021003  00000+0  62719-3 0  9996
2 43137  97.3496  86.3831 0007091   7.6919 352.4431 15.34609870277603
DIWATA-2B               
1 43678U 18084H   23007.81524875  .00001773  00000+0  17791-3 0  9996
2 43678  97.9958 148.9020 0009137 339.1466  20.9404 14.92619527228336
ES'HAIL 2               
1 43700U 18090A   23007.83010480  .00000157  00000+0  00000+0 0  9999
2 43700   0.0165  71.5214 0002030 253.8978 106.3375  1.00274568 15076
FOX-1CLIFF (AO-95)      
1 43770U 18099N   23007.13095430  .00005452  00000+0  47008-3 0  9992
2 43770  97.5981  73.0538 0012333 318.3021  41.7260 14.97642725223484
ITASAT 1                
1 43786U 18099AE  23007.91554553  .00004452  00000+0  38492-3 0  9997
2 43786  97.5992  74.8312 0013207 304.5205  55.4770 14.97625606223649
JY1SAT (JO-97)          
1 43803U 18099AX  23007.11516340  .00005309  00000+0  44908-3 0  9992
2 43803  97.5953  73.8969 0012898 305.0810  54.9203 14.98393025223559
UWE-4                   
1 43880U 18111E   23007.69668444  .00006756  00000+0  55228-3 0  9992
2 43880  97.6620 275.4462 0012591   9.6169 350.5293 14.99626254220294
NEXUS (FO-99)           
1 43937U 19003F   23007.88287778  .00027331  00000+0  74715-3 0  9998
2 43937  97.1089  38.7978 0018784 135.4516 224.8243 15.37166444221301
PSAT2 (NO-104)          
1 44354U 19036R   23007.74527475  .00270752  16161-4  89141-3 0  9990
2 44354  28.5154 170.6355 0105702 163.8457 196.5559 15.80470070196506
JAISAT-1                
1 44419U 19038F   23007.37373881  .00015738  00000+0  69792-3 0  9994
2 44419  97.6601 344.9665 0018747 139.9343 220.3279 15.21527596194012
DUCHIFAT-3              
1 44854U 19089C   23007.88817789  .00007020  00000+0  51854-3 0  9994
2 44854  36.9662 326.9584 0005734  80.6481 307.8902 15.02890856168684
CAS-6 (TIANQIN 1)       
1 44881U 19093C   23007.90715031  .00001000  00000+0  13245-3 0  9993
2 44881  97.8777  89.0385 0013622 238.4673 121.5199 14.82017197165057
RS-44 & BREEZE-KM R/B   
1 44909U 19096E   23007.48061600  .00000024  00000+0  53151-4 0  9992
2 44909  82.5215  94.7377 0217244 202.4394 156.7095 12.79717430141608
ORBITAL FACTORY 2 (OF-2)
1 45113U 19071C   23007.59549130  .00112247  00000+0  11680-2 0  9994
2 45113  51.6327 124.6435 0007438 226.8783 133.1590 15.63694134165087
HUSKYSAT-1 (HO-107)     
1 45119U 19071J   23007.72576214  .00083702  00000+0  10258-2 0  9991
2 45119  51.6337 126.9799 0007620 216.6964 143.3508 15.59592565165052
BY70-2                  
1 45857U 20042B   23007.71211410  .00013108  00000+0  16107-2 0  9995
2 45857  97.9419  87.8611 0010157 168.4188 191.7294 14.83127360135693
SALSAT                  
1 46495U 20068K   23007.27881670  .00004545  00000+0  31835-3 0  9995
2 46495  97.7525 314.0117 0014985 310.5728  49.4193 15.05658610124841
BY70-3                  
1 46839U 20079N   23007.98212138  .00077677  00000+0  10853-2 0  9996
2 46839  97.1757  83.7583 0003492 312.4757 220.6485 15.56589561121876
RADFXSAT-2 (AO-109)     
1 47311U 21002C   23007.81208294  .00018951  00000+0  64700-3 0  9990
2 47311  60.6850 310.7766 0038735  94.8825 265.6690 15.29714258109676
UVSQ-SAT                
1 47438U 21006AB  23007.90025264  .00012779  00000+0  61851-3 0  9994
2 47438  97.4113  67.7550 0009772 287.0187  72.9977 15.18667632108275
DIY-1 (ARDUIQUBE)       
1 47963U 21022AH  23007.47635657  .00043213  00000+0  18333-2 0  9993
2 47963  97.5175 272.3535 0014798 137.5620 222.6764 15.22871040 97886
XW-3 (CAS-9)            
1 50466U 21131B   23007.87179362  .00000496  00000+0  17649-3 0  9992
2 50466  98.5659  89.8766 0003645 252.3828 107.6961 14.38614647 54303
TEVEL-3                 
1 50988U 22002E   23007.73485823  .00013136  00000+0  64909-3 0  9992
2 50988  97.4590  76.4509 0010349  76.9906  18.8352 15.17935287 54364
TEVEL-8                 
1 50989U 22002F   23007.81279993  .00013380  00000+0  66202-3 0  9990
2 50989  97.4603  76.5692 0010405  77.2080  16.7263 15.17882639 54375
TEVEL-5                 
1 50998U 22002Q   23007.81794476  .00013892  00000+0  67460-3 0  9993
2 50998  97.4584  76.7623 0011854  73.2478  20.2624 15.18513946 54391
TEVEL-6                 
1 50999U 22002R   23007.75121902  .00013791  00000+0  66963-3 0  9990
2 50999  97.4577  76.6909 0011824  73.9728  20.7980 15.18518604 54387
TEVEL-1                 
1 51013U 22002AF  23007.74081532  .00013390  00000+0  66213-3 0  9994
2 51013  97.4585  76.4211 0009897  75.2449  20.9429 15.17907314 54367
TEVEL-7                 
1 51062U 22002CG  23007.74909039  .00013467  00000+0  66631-3 0  9998
2 51062  97.4609  76.4870 0010368  75.3130  19.5425 15.17882659 54366
TEVEL-4                 
1 51063U 22002CH  23007.69684237  .00013289  00000+0  65802-3 0  9994
2 51063  97.4598  76.4257 0010305  77.6303  80.0601 15.17858750 54354
TEVEL-2                 
1 51069U 22002CP  23007.73666053  .00013265  00000+0  65543-3 0  9997
2 51069  97.4583  76.4317 0010311  77.9992  17.6419 15.17933349 54367
GREENCUBE               
1 53106U 22080B   22354.08419093 -.00000003  00000+0  00000+0 0  9999
2 53106  70.1702  21.9397 0008914 226.9685 182.2049  6.42557326 10248
YUZGU 9 (RS3S)          
1 53308U 98067TT  23007.36843930  .00331183  00000+0  14899-2 0  9998
2 53308  51.6321  31.4963 0005974  26.4678 333.6629 15.82597173 26573
YUZGU 7 (RS1S)          
1 53309U 98067TU  23007.45078570  .00374176  00000+0  15390-2 0  9995
2 53309  51.6305  30.5302 0006488  27.3984 332.7360 15.84382146 26547
YUZGU 11 (RS5S)         
1 53310U 98067TV  23007.61738964  .00344573  00000+0  15116-2 0  9999
2 53310  51.6331  30.1592 0005947  24.2694 335.8588 15.83099513 26591
YUZGU 12 (RS6S)         
1 53311U 98067TW  23007.34053102  .00434688  00000+0  16229-2 0  9997
2 53311  51.6285  30.5344 0006440  31.7639 328.3752 15.86246331 26584
TSIOLKOVSKY-RYAZAN 1 (*)
1 53312U 98067TX  23007.33665775  .00345993  00000+0  14848-2 0  9997
2 53312  51.6296  31.2762 0006678  24.3744 335.7574 15.83557027 26518
TSIOLKOVSKY-RYAZAN 2 (*)
1 53313U 98067TY  23007.77090121  .00360492  00000+0  15088-2 0  9991
2 53313  51.6317  28.9310 0006743  30.0686 330.0703 15.84047953 26635
YUZGU 10 (RS4S)         
1 53321U 98067TZ  23007.53910658  .00340141  00000+0  14827-2 0  9999
2 53321  51.6331  30.3842 0006187  25.5469 334.5838 15.83244317 26592
RS29S (SXC3-2110 CYCLO*)
1 53373U 22096D   23007.98300973  .00020432  00000+0  73902-3 0  9995
2 53373  97.4277 273.5836 0002512  49.3763  76.6529 15.28459802 23133
RS32S (SXC3-212 MONITO*)
1 53374U 22096E   23007.97582205  .00017905  00000+0  64936-3 0  9993
2 53374  97.4275 273.5887 0002561  36.8328  93.3901 15.28399235 23133
RS34S (SXC3-218 KUZBAS*)
1 53375U 22096F   23007.79471594  .00015995  00000+0  59003-3 0  9998
2 53375  97.4277 273.3594 0002490  49.0101  40.0629 15.27862747 23100
RS23S (SXC3-21 UTMN)    
1 53376U 22096G   23007.97983858  .00016982  00000+0  62354-3 0  9990
2 53376  97.4286 273.5569 0002425  45.5042  10.9950 15.28002954 23131
RS28S (SXC3-214 MIET-A*)
1 53377U 22096H   23007.98135624  .00016123  00000+0  59441-3 0  9992
2 53377  97.4280 273.5574 0002345  43.8479  12.5283 15.27880832 23133
RS26S (KAI-1)           
1 53378U 22096J   23007.80138911  .00013690  00000+0  51012-3 0  9998
2 53378  97.4284 273.3517 0002170  41.2509  47.1697 15.27566729 23101
RS19S (SXC3-219 ISOI)   
1 53381U 22096M   23007.80533964  .00016037  00000+0  58192-3 0  9993
2 53381  97.4284 273.4908 0002170 291.0571 139.2924 15.28407141 23114
RS21S (CUBESX-HSE-2)    
1 53383U 22096P   23007.86508961  .00016570  00000+0  59958-3 0  9993
2 53383  97.4285 273.5637 0002536 290.8319 133.7064 15.28489823 23122
RS30S (SXC3-217 SIREN)  
1 53384U 22096Q   23007.87326382  .00015362  00000+0  56056-3 0  9994
2 53384  97.4288 273.5524 0002334 284.6021 140.7359 15.28230045 23123
RS20S (GEOSCAN-EDELVEIS)
1 53385U 22096R   23007.87971135  .00020967  00000+0  73493-3 0  9998
2 53385  97.4279 273.6898 0003006 297.5443 126.7711 15.29480817 23162
RS33S (SXC3-215 VIZARD) 
1 53386U 22096S   23007.76341753  .00024030  00000+0  81619-3 0  9998
2 53386  97.4271 273.7005 0003560 286.0919 163.1987 15.30476885 23142
CAS-5A (FO-118)         
1 54684U 22167C   23007.78096874  .00009775  00000+0  61698-3 0  9996
2 54684  97.5395 147.2652 0015035 162.5721 307.9573 15.09199184  4445
CAS-10                  
1 54816U 21035C   23007.83158543  .00143613  00000+0  14163-2 0  9998
2 54816  41.4783  52.8124 0005724 340.4739  19.5752 15.64667348  3128
